start=new Date('2022-02-05T00:00:00.000Z').valueOf();
sats=[{"OBJECT_TYPE":"PAYLOAD","CLASSIFICATION_TYPE":"U","EPOCH":"2022-02-04T13:13:21.954720","MEAN_ANOMALY":"280.0160","ARG_OF_PERICENTER":"80.1016","TIME_SYSTEM":"UTC","ECCENTRICITY":"0.00016570","MEAN_MOTION_DDOT":"0.0000000000000","ELEMENT_SET_NO":"999","RCS_SIZE":"LARGE","OBJECT_NAME":"STARLINK-1910","EPHEMERIS_TYPE":"0","BSTAR":"0.00061320000000","REF_FRAME":"TEME","OBJECT_ID":"2020-074K","COUNTRY_CODE":"US","CENTER_NAME":"EARTH","INCLINATION":"53.0532","PERIAPSIS":"546.036","PERIOD":"95.592","LAUNCH_DATE":"2020-10-24","TLE_LINE1":"1 46748U 20074K   22035.55094855  .00008866  00000-0  61320-3 0  9998","APOAPSIS":"548.331","MEAN_MOTION":"15.06409762","FILE":"3291889","TLE_LINE2":"2 46748  53.0532 189.0717 0001657  80.1016 280.0160 15.06409762 71473","REV_AT_EPOCH":"7147","RA_OF_ASC_NODE":"189.0717","SITE":"AFETR","MEAN_MOTION_DOT":"0.00008866","NORAD_CAT_ID":"46748","SEMIMAJOR_AXIS":"6925.319","GP_ID":"195300061","MEAN_ELEMENT_THEORY":"SGP4","DECAY_DATE":null},{"CENTER_NAME":"EARTH","INCLINATION":"53.0558","REF_FRAME":"TEME","OBJECT_ID":"2020-074L","COUNTRY_CODE":"US","TLE_LINE1":"1 46749U 20074L   22035.42560713  .00001158  00000-0  96612-4 0  9996","PERIAPSIS":"545.950","PERIOD":"95.592","LAUNCH_DATE":"2020-10-24","SITE":"AFETR","APOAPSIS":"548.473","MEAN_MOTION":"15.06400664","FILE":"3291889","REV_AT_EPOCH":"7145","TLE_LINE2":"2 46749  53.0558 189.6350 0001821  82.6663 277.4533 15.06400664 71453","RA_OF_ASC_NODE":"189.6350","DECAY_DATE":null,"MEAN_MOTION_DOT":"0.00001158","SEMIMAJOR_AXIS":"6925.347","NORAD_CAT_ID":"46749","MEAN_ELEMENT_THEORY":"SGP4","GP_ID":"195300306","MEAN_ANOMALY":"277.4533","OBJECT_TYPE":"PAYLOAD","CLASSIFICATION_TYPE":"U","EPOCH":"2022-02-04T10:12:52.456032","ARG_OF_PERICENTER":"82.6663","TIME_SYSTEM":"UTC","MEAN_MOTION_DDOT":"0.0000000000000","ECCENTRICITY":"0.00018210","EPHEMERIS_TYPE":"0","BSTAR":"0.00009661200000","ELEMENT_SET_NO":"999","RCS_SIZE":"LARGE","OBJECT_NAME":"STARLINK-1911"},{"MEAN_ANOMALY":"270.7449","OBJECT_TYPE":"PAYLOAD","EPOCH":"2022-02-04T13:18:39.983616","CLASSIFICATION_TYPE":"U","TIME_SYSTEM":"UTC","ARG_OF_PERICENTER":"89.3728","MEAN_MOTION_DDOT":"0.0000000000000","ECCENTRICITY":"0.00016440","EPHEMERIS_TYPE":"0","BSTAR":"0.00007361600000","ELEMENT_SET_NO":"999","RCS_SIZE":"LARGE","OBJECT_NAME":"STARLINK-1920","INCLINATION":"53.0539","CENTER_NAME":"EARTH","OBJECT_ID":"2020-074N","REF_FRAME":"TEME","COUNTRY_CODE":"US","TLE_LINE1":"1 46751U 20074N   22035.55462944  .00000815  00000-0  73616-4 0  9998","PERIAPSIS":"546.085","LAUNCH_DATE":"2020-10-24","PERIOD":"95.592","SITE":"AFETR","FILE":"3291889","MEAN_MOTION":"15.06396653","APOAPSIS":"548.362","RA_OF_ASC_NODE":"189.0546","REV_AT_EPOCH":"7147","TLE_LINE2":"2 46751  53.0539 189.0546 0001644  89.3728 270.7449 15.06396653 71471","DECAY_DATE":null,"NORAD_CAT_ID":"46751","SEMIMAJOR_AXIS":"6925.359","MEAN_MOTION_DOT":"0.00000815","GP_ID":"195299062","MEAN_ELEMENT_THEORY":"SGP4"},{"MEAN_ANOMALY":"285.2643","OBJECT_TYPE":"PAYLOAD","EPOCH":"2022-02-04T16:45:38.475936","CLASSIFICATION_TYPE":"U","TIME_SYSTEM":"UTC","ARG_OF_PERICENTER":"74.8543","MEAN_MOTION_DDOT":"0.0000000000000","ECCENTRICITY":"0.00017770","BSTAR":"0.00011055000000","EPHEMERIS_TYPE":"0","OBJECT_NAME":"STARLINK-1921","RCS_SIZE":"LARGE","ELEMENT_SET_NO":"999","CENTER_NAME":"EARTH","INCLINATION":"53.0529","COUNTRY_CODE":"US","REF_FRAME":"TEME","OBJECT_ID":"2020-074P","TLE_LINE1":"1 46752U 20074P   22035.69836199  .00001366  00000-0  11055-3 0  9991","PERIOD":"95.592","LAUNCH_DATE":"2020-10-24","PERIAPSIS":"545.969","SITE":"AFETR","TLE_LINE2":"2 46752  53.0529 188.4036 0001777  74.8543 285.2643 15.06404704 71507","REV_AT_EPOCH":"7150","RA_OF_ASC_NODE":"188.4036","APOAPSIS":"548.430","FILE":"3292109","MEAN_MOTION":"15.06404704","DECAY_DATE":null,"GP_ID":"195308381","MEAN_ELEMENT_THEORY":"SGP4","MEAN_MOTION_DOT":"0.00001366","NORAD_CAT_ID":"46752","SEMIMAJOR_AXIS":"6925.334"},{"TIME_SYSTEM":"UTC","ARG_OF_PERICENTER":"84.7696","MEAN_ANOMALY":"275.3458","CLASSIFICATION_TYPE":"U","OBJECT_TYPE":"PAYLOAD","EPOCH":"2022-02-04T17:33:25.031808","BSTAR":"0.00012506000000","EPHEMERIS_TYPE":"0","ELEMENT_SET_NO":"999","RCS_SIZE":"LARGE","OBJECT_NAME":"STARLINK-1922","MEAN_MOTION_DDOT":"0.0000000000000","ECCENTRICITY":"0.00014470","TLE_LINE1":"1 46753U 20074Q   22035.73153972  .00001582  00000-0  12506-3 0  9990","PERIOD":"95.592","LAUNCH_DATE":"2020-10-24","PERIAPSIS":"546.208","CENTER_NAME":"EARTH","INCLINATION":"53.0534","COUNTRY_CODE":"US","REF_FRAME":"TEME","OBJECT_ID":"2020-074Q","DECAY_DATE":null,"MEAN_ELEMENT_THEORY":"SGP4","GP_ID":"195306701","MEAN_MOTION_DOT":"0.00001582","SEMIMAJOR_AXIS":"6925.345","NORAD_CAT_ID":"46753","SITE":"AFETR","REV_AT_EPOCH":"7152","TLE_LINE2":"2 46753  53.0534 188.2495 0001447  84.7696 275.3458 15.06401252 71525","RA_OF_ASC_NODE":"188.2495","APOAPSIS":"548.212","MEAN_MOTION":"15.06401252","FILE":"3292038"},{"SITE":"AFETR","APOAPSIS":"548.414","MEAN_MOTION":"15.06396612","FILE":"3292038","REV_AT_EPOCH":"7151","TLE_LINE2":"2 46754  53.0535 188.2177 0001719  87.2792 272.8394 15.06396612 71514","RA_OF_ASC_NODE":"188.2177","DECAY_DATE":null,"MEAN_MOTION_DOT":"0.00001205","SEMIMAJOR_AXIS":"6925.359","NORAD_CAT_ID":"46754","MEAN_ELEMENT_THEORY":"SGP4","GP_ID":"195306904","CENTER_NAME":"EARTH","INCLINATION":"53.0535","REF_FRAME":"TEME","OBJECT_ID":"2020-074R","COUNTRY_CODE":"US","TLE_LINE1":"1 46754U 20074R   22035.73891311  .00001205  00000-0  99810-4 0  9993","PERIAPSIS":"546.033","PERIOD":"95.592","LAUNCH_DATE":"2020-10-24","MEAN_MOTION_DDOT":"0.0000000000000","ECCENTRICITY":"0.00017190","EPHEMERIS_TYPE":"0","BSTAR":"0.00009981000000","RCS_SIZE":"LARGE","ELEMENT_SET_NO":"999","OBJECT_NAME":"STARLINK-1923","MEAN_ANOMALY":"272.8394","OBJECT_TYPE":"PAYLOAD","EPOCH":"2022-02-04T17:44:02.092704","CLASSIFICATION_TYPE":"U","TIME_SYSTEM":"UTC","ARG_OF_PERICENTER":"87.2792"},{"MEAN_ANOMALY":"281.6908","OBJECT_TYPE":"PAYLOAD","CLASSIFICATION_TYPE":"U","EPOCH":"2022-02-04T03:31:29.225856","ARG_OF_PERICENTER":"78.4273","TIME_SYSTEM":"UTC","MEAN_MOTION_DDOT":"0.0000000000000","ECCENTRICITY":"0.00017100","EPHEMERIS_TYPE":"0","BSTAR":"0.00007100300000","ELEMENT_SET_NO":"999","RCS_SIZE":"LARGE","OBJECT_NAME":"STARLINK-1924","CENTER_NAME":"EARTH","INCLINATION":"53.0533","REF_FRAME":"TEME","OBJECT_ID":"2020-074S","COUNTRY_CODE":"US","TLE_LINE1":"1 46755U 20074S   22035.14686604  .00000776  00000-0  71003-4 0  9992","PERIAPSIS":"546.024","PERIOD":"95.592","LAUNCH_DATE":"2020-10-24","SITE":"AFETR","APOAPSIS":"548.392","FILE":"3291889","MEAN_MOTION":"15.06401859","REV_AT_EPOCH":"7134","TLE_LINE2":"2 46755  53.0533 195.8799 0001710  78.4273 281.6908 15.06401859 71344","RA_OF_ASC_NODE":"195.8799","DECAY_DATE":null,"MEAN_MOTION_DOT":"0.00000776","NORAD_CAT_ID":"46755","SEMIMAJOR_AXIS":"6925.343","GP_ID":"195298563","MEAN_ELEMENT_THEORY":"SGP4"},{"OBJECT_TYPE":"PAYLOAD","EPOCH":"2022-02-04T17:39:21.730752","CLASSIFICATION_TYPE":"U","MEAN_ANOMALY":"279.2160","TIME_SYSTEM":"UTC","ARG_OF_PERICENTER":"80.8993","ECCENTRICITY":"0.00014500","MEAN_MOTION_DDOT":"0.0000000000000","OBJECT_NAME":"STARLINK-1925","RCS_SIZE":"LARGE","ELEMENT_SET_NO":"999","BSTAR":"0.00000549650000","EPHEMERIS_TYPE":"0","COUNTRY_CODE":"US","REF_FRAME":"TEME","OBJECT_ID":"2020-074T","CENTER_NAME":"EARTH","INCLINATION":"53.0554","PERIOD":"95.592","LAUNCH_DATE":"2020-10-24","PERIAPSIS":"546.205","TLE_LINE1":"1 46756U 20074T   22035.73566818 -.00000200  00000-0  54965-5 0  9994","TLE_LINE2":"2 46756  53.0554 193.2381 0001450  80.8993 279.2160 15.06401455 71451","REV_AT_EPOCH":"7145","RA_OF_ASC_NODE":"193.2381","APOAPSIS":"548.213","FILE":"3292038","MEAN_MOTION":"15.06401455","SITE":"AFETR","GP_ID":"195306901","MEAN_ELEMENT_THEORY":"SGP4","MEAN_MOTION_DOT":"-0.00000200","NORAD_CAT_ID":"46756","SEMIMAJOR_AXIS":"6925.344","DECAY_DATE":null},{"REV_AT_EPOCH":"7145","TLE_LINE2":"2 46757  53.0535 192.8220 0001455  82.3171 277.7983 15.06402366 71456","RA_OF_ASC_NODE":"192.8220","APOAPSIS":"548.214","MEAN_MOTION":"15.06402366","FILE":"3292038","SITE":"AFETR","GP_ID":"195306905","MEAN_ELEMENT_THEORY":"SGP4","MEAN_MOTION_DOT":"0.00000772","SEMIMAJOR_AXIS":"6925.341","NORAD_CAT_ID":"46757","DECAY_DATE":null,"COUNTRY_CODE":"US","REF_FRAME":"TEME","OBJECT_ID":"2020-074U","CENTER_NAME":"EARTH","INCLINATION":"53.0535","PERIOD":"95.592","LAUNCH_DATE":"2020-10-24","PERIAPSIS":"546.199","TLE_LINE1":"1 46757U 20074U   22035.83149845  .00000772  00000-0  70728-4 0  9990","ECCENTRICITY":"0.00014550","MEAN_MOTION_DDOT":"0.0000000000000","ELEMENT_SET_NO":"999","RCS_SIZE":"LARGE","OBJECT_NAME":"STARLINK-1926","BSTAR":"0.00007072800000","EPHEMERIS_TYPE":"0","OBJECT_TYPE":"PAYLOAD","CLASSIFICATION_TYPE":"U","EPOCH":"2022-02-04T19:57:21.466080","MEAN_ANOMALY":"277.7983","ARG_OF_PERICENTER":"82.3171","TIME_SYSTEM":"UTC"},{"PERIOD":"95.591","LAUNCH_DATE":"2020-10-24","PERIAPSIS":"545.843","TLE_LINE1":"1 46758U 20074V   22035.59287931  .00008162  00000-0  56585-3 0  9998","COUNTRY_CODE":"US","REF_FRAME":"TEME","OBJECT_ID":"2020-074V","CENTER_NAME":"EARTH","INCLINATION":"53.0521","GP_ID":"195300307","MEAN_ELEMENT_THEORY":"SGP4","MEAN_MOTION_DOT":"0.00008162","SEMIMAJOR_AXIS":"6925.276","NORAD_CAT_ID":"46758","DECAY_DATE":null,"TLE_LINE2":"2 46758  53.0521 193.8861 0001874  58.7242 301.3930 15.06423700 71412","REV_AT_EPOCH":"7141","RA_OF_ASC_NODE":"193.8861","APOAPSIS":"548.439","FILE":"3291889","MEAN_MOTION":"15.06423700","SITE":"AFETR","ARG_OF_PERICENTER":"58.7242","TIME_SYSTEM":"UTC","CLASSIFICATION_TYPE":"U","OBJECT_TYPE":"PAYLOAD","EPOCH":"2022-02-04T14:13:44.772384","MEAN_ANOMALY":"301.3930","OBJECT_NAME":"STARLINK-1928","RCS_SIZE":"LARGE","ELEMENT_SET_NO":"999","BSTAR":"0.00056585000000","EPHEMERIS_TYPE":"0","ECCENTRICITY":"0.00018740","MEAN_MOTION_DDOT":"0.0000000000000"}];
